STARLINK-37737          
1 69227U 26115S   26159.04457321  .00159554  00000+0  81543-3 0  9992
2 69227  97.2840 176.0268 0000906 112.7962 247.3402 15.80900665  3242
STARLINK-37618          
1 69228U 26115T   26159.10422509  .00188800  00000+0  96133-3 0  9997
2 69228  97.2842 176.0988 0001035  85.4199 274.7187 15.80904660  3250
STARLINK-37679          
1 69229U 26115U   26159.10570264  .00148237  00000+0  75904-3 0  9993
2 69229  97.2839 176.0967 0001089  91.3439 268.7954 15.80888774  3258
STARLINK-37746          
1 69230U 26115V   26159.04392742  .00046329  00000+0  24065-3 0  9992
2 69230  97.2839 176.0276 0001114  79.5703 280.5690 15.80877797  3245
STARLINK-37557          
1 69231U 26115W   26159.10404164  .00036934  00000+0  19267-3 0  9991
2 69231  97.2844 176.0999 0000830 116.7555 243.3798 15.80824870  3258
STARLINK-37745          
1 69232U 26115X   26159.03670840  .00129795  00000+0  66660-3 0  9997
2 69232  97.2842 176.0380 0001042  59.2146 300.9225 15.80872934  3242
STARLINK-37739          
1 69233U 26115Y   26159.10485625  .00109262  00000+0  56228-3 0  9997
2 69233  97.2841 176.0984 0000673  82.5654 277.5690 15.80885192  3250
STARLINK-37755          
1 69234U 26115Z   26159.16672454 -.00101204  00000+0 -68451-3 0  9993
2 69234  97.2849 176.1495 0001667 102.4041 213.9782 15.75228995  3244
TJS-24                  
1 69235U 26116A   26159.14775940 -.00000216  00000+0  00000+0 0  9999
2 69235   0.0289 246.0087 0000750 173.4714 340.5663  1.00271333   133
STARLINK-37665          
1 69238U 26117A   26159.16672454 -.01353622  00000+0 -70839-2 0  9995
2 69238  53.1584 288.9049 0000601  29.2640  75.5768 15.83024222  2724
STARLINK-37558          
1 69239U 26117B   26159.16672454 -.01109955  00000+0 -57159-2 0  9994
2 69239  53.1585 288.8935 0000809  37.6897  72.6972 15.82826637  2720
STARLINK-37680          
1 69240U 26117C   26159.16672454 -.01575384  00000+0 -81254-2 0  9992
2 69240  53.1585 288.8769 0000971  60.8419  57.3963 15.83291533  2716
STARLINK-37742          
1 69241U 26117D   26159.16672454 -.01984519  00000+0 -99447-2 0  9990
2 69241  53.1580 288.8580 0000925  40.3734  87.0555 15.84105196  2723
STARLINK-37718          
1 69242U 26117E   26159.16672454 -.01959688  00000+0 -97091-2 0  9993
2 69242  53.1580 288.8438 0001149  70.1500  63.9853 15.84297135  2715
STARLINK-37735          
1 69243U 26117F   26159.16672454 -.01958266  00000+0 -99423-2 0  9996
2 69243  53.1583 288.8409 0000831  70.3750  65.1794 15.83792063  2721
STARLINK-37757          
1 69244U 26117G   26159.16672454 -.01976920  00000+0 -96900-2 0  9991
2 69244  53.1577 288.8152 0000865  80.0670  67.8040 15.84549757  2720
STARLINK-37767          
1 69245U 26117H   26159.16672454 -.02054143  00000+0 -96646-2 0  9994
2 69245  53.1569 288.7695 0000904  67.0009 102.9209 15.85513935  2726
STARLINK-35759          
1 69246U 26117J   26159.16672454 -.02077448  00000+0 -97883-2 0  9992
2 69246  53.1568 288.7612 0001063  67.0741 106.7847 15.85520721  2771
STARLINK-37238          
1 69247U 26117K   26159.16672454 -.01998505  00000+0 -87589-2 0  9990
2 69247  53.1568 288.7180 0000995  69.8493 124.5279 15.86858390  2728
STARLINK-37412          
1 69248U 26117L   26159.16672454 -.02032298  00000+0 -86295-2 0  9993
2 69248  53.1565 288.6843 0000971  67.7324 143.1025 15.87545215  2798
STARLINK-37398          
1 69249U 26117M   26159.16672454 -.02058632  00000+0 -87935-2 0  9996
2 69249  53.1562 288.6782 0000916  67.0726 146.3772 15.87468698  2799
STARLINK-37499          
1 69250U 26117N   26159.16672454 -.02061426  00000+0 -87022-2 0  9990
2 69250  53.1564 288.6649 0000858  74.9055 145.1449 15.87708718  2790
STARLINK-37489          
1 69251U 26117P   26159.16672454 -.02048934  00000+0 -85380-2 0  9995
2 69251  53.1566 288.6461 0000874  74.6727 154.3100 15.87946528  2795
STARLINK-37434          
1 69252U 26117Q   26159.16672454 -.02010971  00000+0 -80035-2 0  9998
2 69252  53.1563 288.6205 0000912  74.3753 166.7722 15.88795053  2724
STARLINK-37368          
1 69253U 26117R   26159.16672454 -.01913234  00000+0 -71449-2 0  9991
2 69253  53.1561 288.5635 0000676  67.3960 201.3061 15.90410212  2791
STARLINK-37517          
1 69254U 26117S   26159.16672454 -.01885762  00000+0 -69504-2 0  9995
2 69254  53.1563 288.5518 0000665  66.1825 208.3639 15.90612090  2795
STARLINK-37378          
1 69255U 26117T   26159.16672454 -.01927039  00000+0 -71802-2 0  9994
2 69255  53.1563 288.5443 0000750  65.4750 212.5005 15.90478735  2719
STARLINK-37396          
1 69256U 26117U   26159.16672454 -.02265451  13598-2 -71274-2 0  9991
2 69256  53.1562 288.5201 0000648  72.0541 217.3048 15.90880887  2792
STARLINK-37508          
1 69257U 26117V   26159.16672454 -.02262087  13588-2 -70417-2 0  9991
2 69257  53.1560 288.5032 0000621  68.4403 228.8616 15.91087514  2717
