OBJECT_NAME,OBJECT_ID,EPOCH,MEAN_MOTION,ECCENTRICITY,INCLINATION,RA_OF_ASC_NODE,ARG_OF_PERICENTER,MEAN_ANOMALY,EPHEMERIS_TYPE,CLASSIFICATION_TYPE,NORAD_CAT_ID,ELEMENT_SET_NO,REV_AT_EPOCH,BSTAR,MEAN_MOTION_DOT,MEAN_MOTION_DDOT
STARLINK-37737,2026-115S,2026-06-08T01:04:11.125344,15.80900665,.0000906,97.2840,176.0268,112.7962,247.3402,0,U,69227,999,324,.81543E-3,.159554E-2,0
STARLINK-37618,2026-115T,2026-06-08T02:30:05.047776,15.80904660,.0001035,97.2842,176.0988,85.4199,274.7187,0,U,69228,999,325,.96133E-3,.1888E-2,0
STARLINK-37679,2026-115U,2026-06-08T02:32:12.708096,15.80888774,.0001089,97.2839,176.0967,91.3439,268.7954,0,U,69229,999,325,.75904E-3,.148237E-2,0
STARLINK-37746,2026-115V,2026-06-08T01:03:15.329088,15.80877797,.0001114,97.2839,176.0276,79.5703,280.5690,0,U,69230,999,324,.24065E-3,.46329E-3,0
STARLINK-37557,2026-115W,2026-06-08T02:29:49.197696,15.80824870,.000083,97.2844,176.0999,116.7555,243.3798,0,U,69231,999,325,.19267E-3,.36934E-3,0
STARLINK-37745,2026-115X,2026-06-08T00:52:51.605760,15.80872934,.0001042,97.2842,176.0380,59.2146,300.9225,0,U,69232,999,324,.6666E-3,.129795E-2,0
STARLINK-37739,2026-115Y,2026-06-08T02:30:59.580000,15.80885192,.0000673,97.2841,176.0984,82.5654,277.5690,0,U,69233,999,325,.56228E-3,.109262E-2,0
STARLINK-37755,2026-115Z,2026-06-08T04:00:05.000256,15.75228995,.0001667,97.2849,176.1495,102.4041,213.9782,0,U,69234,999,324,-.68451E-3,-.101204E-2,0
TJS-24,2026-116A,2026-06-08T03:32:46.412160,1.00271333,.000075,0.0289,246.0087,173.4714,340.5663,0,U,69235,999,13,0,-.216E-5,0
STARLINK-37665,2026-117A,2026-06-08T04:00:05.000256,15.83024222,.0000601,53.1584,288.9049,29.2640,75.5768,0,U,69238,999,272,-.70839E-2,-.1353622E-1,0
STARLINK-37558,2026-117B,2026-06-08T04:00:05.000256,15.82826637,.0000809,53.1585,288.8935,37.6897,72.6972,0,U,69239,999,272,-.57159E-2,-.1109955E-1,0
STARLINK-37680,2026-117C,2026-06-08T04:00:05.000256,15.83291533,.0000971,53.1585,288.8769,60.8419,57.3963,0,U,69240,999,271,-.81254E-2,-.1575384E-1,0
STARLINK-37742,2026-117D,2026-06-08T04:00:05.000256,15.84105196,.0000925,53.1580,288.8580,40.3734,87.0555,0,U,69241,999,272,-.99447E-2,-.1984519E-1,0
STARLINK-37718,2026-117E,2026-06-08T04:00:05.000256,15.84297135,.0001149,53.1580,288.8438,70.1500,63.9853,0,U,69242,999,271,-.97091E-2,-.1959688E-1,0
STARLINK-37735,2026-117F,2026-06-08T04:00:05.000256,15.83792063,.0000831,53.1583,288.8409,70.3750,65.1794,0,U,69243,999,272,-.99423E-2,-.1958266E-1,0
STARLINK-37757,2026-117G,2026-06-08T04:00:05.000256,15.84549757,.0000865,53.1577,288.8152,80.0670,67.8040,0,U,69244,999,272,-.969E-2,-.197692E-1,0
STARLINK-37767,2026-117H,2026-06-08T04:00:05.000256,15.85513935,.0000904,53.1569,288.7695,67.0009,102.9209,0,U,69245,999,272,-.96646E-2,-.2054143E-1,0
STARLINK-35759,2026-117J,2026-06-08T04:00:05.000256,15.85520721,.0001063,53.1568,288.7612,67.0741,106.7847,0,U,69246,999,277,-.97883E-2,-.2077448E-1,0
STARLINK-37238,2026-117K,2026-06-08T04:00:05.000256,15.86858390,.0000995,53.1568,288.7180,69.8493,124.5279,0,U,69247,999,272,-.87589E-2,-.1998505E-1,0
STARLINK-37412,2026-117L,2026-06-08T04:00:05.000256,15.87545215,.0000971,53.1565,288.6843,67.7324,143.1025,0,U,69248,999,279,-.86295E-2,-.2032298E-1,0
STARLINK-37398,2026-117M,2026-06-08T04:00:05.000256,15.87468698,.0000916,53.1562,288.6782,67.0726,146.3772,0,U,69249,999,279,-.87935E-2,-.2058632E-1,0
STARLINK-37499,2026-117N,2026-06-08T04:00:05.000256,15.87708718,.0000858,53.1564,288.6649,74.9055,145.1449,0,U,69250,999,279,-.87022E-2,-.2061426E-1,0
STARLINK-37489,2026-117P,2026-06-08T04:00:05.000256,15.87946528,.0000874,53.1566,288.6461,74.6727,154.3100,0,U,69251,999,279,-.8538E-2,-.2048934E-1,0
STARLINK-37434,2026-117Q,2026-06-08T04:00:05.000256,15.88795053,.0000912,53.1563,288.6205,74.3753,166.7722,0,U,69252,999,272,-.80035E-2,-.2010971E-1,0
STARLINK-37368,2026-117R,2026-06-08T04:00:05.000256,15.90410212,.0000676,53.1561,288.5635,67.3960,201.3061,0,U,69253,999,279,-.71449E-2,-.1913234E-1,0
STARLINK-37517,2026-117S,2026-06-08T04:00:05.000256,15.90612090,.0000665,53.1563,288.5518,66.1825,208.3639,0,U,69254,999,279,-.69504E-2,-.1885762E-1,0
STARLINK-37378,2026-117T,2026-06-08T04:00:05.000256,15.90478735,.000075,53.1563,288.5443,65.4750,212.5005,0,U,69255,999,271,-.71802E-2,-.1927039E-1,0
STARLINK-37396,2026-117U,2026-06-08T04:00:05.000256,15.90880887,.0000648,53.1562,288.5201,72.0541,217.3048,0,U,69256,999,279,-.71274E-2,-.2265451E-1,.13598E-2
STARLINK-37508,2026-117V,2026-06-08T04:00:05.000256,15.91087514,.0000621,53.1560,288.5032,68.4403,228.8616,0,U,69257,999,271,-.70417E-2,-.2262087E-1,.13588E-2
